ORBCOMM FM103           
1 40091U 14040F   26022.07571891  .00001363  00000+0  32621-3 0  9992
2 40091  47.0058  63.7495 0002294 227.9994 132.0697 14.58615924596051
ORBCOMM FM114           
1 41179U 15081A   26022.22888668  .00001402  00000+0  33433-3 0  9992
2 41179  47.0064 331.9753 0002923 262.0458  98.0096 14.58638769536440
ORBCOMM FM119           
1 41180U 15081B   26022.29487606  .00001078  00000+0  26570-3 0  9991
2 41180  46.9992 241.0225 0001278 315.2959  44.7824 14.58583217537708
ORBCOMM FM105           
1 41181U 15081C   26022.08446211  .00000628  00000+0  22108-3 0  9999
2 41181  47.0012 268.3875 0001963 236.4007 123.6686 14.45448473532412
ORBCOMM FM110           
1 41182U 15081D   26021.94392366  .00001294  00000+0  31145-3 0  9996
2 41182  47.0028 332.8042 0001942 123.1932 236.9140 14.58625948536278
ORBCOMM FM118           
1 41183U 15081E   26021.56767381  .00001745  00000+0  40690-3 0  9994
2 41183  47.0057 334.8897 0002160  60.3404 299.7697 14.58670472536322
ORBCOMM FM112           
1 41184U 15081F   26021.98144635  .00001348  00000+0  32300-3 0  9990
2 41184  46.9974 241.4544 0002084 255.1926 104.8729 14.58618915537607
ORBCOMM FM113           
1 41185U 15081G   26022.30122712  .00001520  00000+0  35954-3 0  9990
2 41185  46.9995 240.3051 0001796 265.7652  94.3028 14.58622469537631
